QIANFAN-1               
1 60379U 24140A   26027.24215509  .00000170  00000+0  24349-3 0  9993
2 60379  88.9771 294.5787 0019280  82.7194 277.6148 13.50991130 73490
QIANFAN-2               
1 60380U 24140B   26027.27098461  .00000164  00000+0  23532-3 0  9990
2 60380  88.9757 294.4087 0014495  57.9882 302.2675 13.50995206 73554
QIANFAN-3               
1 60381U 24140C   26027.27914431  .00000183  00000+0  26513-3 0  9998
2 60381  88.9750 294.5371 0015690  68.9840 291.2988 13.50995705 73467
QIANFAN-4               
1 60382U 24140D   26027.25445799  .00000182  00000+0  26232-3 0  9990
2 60382  88.9775 294.4488 0014752  60.3026 299.9591 13.50991362 73586
QIANFAN-5               
1 60383U 24140E   26027.30391981  .00000177  00000+0  25535-3 0  9999
2 60383  88.9750 294.5599 0016972  78.9313 281.3746 13.50993517 73451
QIANFAN-6               
1 60384U 24140F   26027.25042512  .00000174  00000+0  25035-3 0  9999
2 60384  88.9776 294.3238 0014905  65.5727 294.6978 13.50993434 73646
QIANFAN-7               
1 60385U 24140G   26027.23180577  .00001028  00000+0  41054-3 0  9990
2 60385  88.9785 288.3858 0012840 250.8177 109.1628 14.27734293 76884
QIANFAN-8               
1 60386U 24140H   26027.25869559  .00000163  00000+0  23382-3 0  9990
2 60386  88.9778 294.5611 0018372  67.3453 292.9639 13.50994797 73496
